[{"id":235166,"plz":"21109","city":"Hamburg","lat":53.550341,"lon":10.000654,"geoaddr":"Hamburg, Deutschland","status":"solved"},{"id":235167,"plz":"14770","city":"Brandenburg","lat":52.3362346,"lon":9.174755463,"geoaddr":"Brandenburg, Stadthagen, Landkreis Schaumburg, Niedersachsen, Deutschland","status":"solved"},{"id":235168,"plz":"06618","city":"Naumburg","lat":51.1525648,"lon":11.8099186,"geoaddr":"Naumburg (Saale), Burgenlandkreis, Sachsen-Anhalt, Deutschland","status":"solved"},{"id":235169,"plz":"03046","city":"Cottbus","lat":51.7567447,"lon":14.3357307,"geoaddr":"Cottbus - Ch\u00f3\u015bebuz, Brandenburg, Deutschland","status":"solved"},{"id":235170,"plz":"25746","city":"Heide","lat":54.1948456,"lon":9.0929015,"geoaddr":"Heide, Dithmarschen, Schleswig-Holstein, 25746, Deutschland","status":"solved"},{"id":235171,"plz":"23909","city":"Ratzeburg","lat":53.7011061,"lon":10.774288,"geoaddr":"Ratzeburg, Herzogtum Lauenburg, Schleswig-Holstein, Deutschland","status":"solved"},{"id":235172,"plz":"25813","city":"Husum","lat":54.4853638,"lon":9.0538156,"geoaddr":"Husum, Nordfriesland, Schleswig-Holstein, 25813, Deutschland","status":"solved"},{"id":235173,"plz":"23701","city":"Eutin","lat":54.1364642,"lon":10.6159077,"geoaddr":"Eutin, Ostholstein, Schleswig-Holstein, Deutschland","status":"solved"},{"id":235174,"plz":"25421","city":"Pinneberg","lat":53.6558152,"lon":9.8016369,"geoaddr":"Pinneberg, Kreis Pinneberg, Schleswig-Holstein, 25421, Deutschland","status":"solved"},{"id":235175,"plz":"24306","city":"Pl\u00f6n","lat":54.158082,"lon":10.41771,"geoaddr":"Pl\u00f6n, Schleswig-Holstein, 24306, Deutschland","status":"solved"},{"id":235179,"plz":"23843","city":"Bad Oldesloe","lat":53.8096562,"lon":10.3733692,"geoaddr":"Bad Oldesloe, Stormarn, Schleswig-Holstein, 23843, Deutschland","status":"solved"},{"id":235181,"plz":"26721","city":"Emden","lat":53.3670541,"lon":7.2058304,"geoaddr":"Emden, Niedersachsen, Deutschland","status":"solved"},{"id":235185,"plz":"23539","city":"L\u00fcbeck,","lat":53.866444,"lon":10.684738,"geoaddr":"L\u00fcbeck, Schleswig-Holstein, Deutschland","status":"solved"},{"id":235186,"plz":"18055","city":"Rostock","lat":54.0924445,"lon":12.1286127,"geoaddr":"Rostock, Mecklenburg-Vorpommern, Deutschland","status":"solved"},{"id":235191,"plz":"44135","city":"Dortmund","lat":51.5142273,"lon":7.4652789,"geoaddr":"Dortmund, Nordrhein-Westfalen, Deutschland","status":"solved"},{"id":235192,"plz":"47051","city":"Duisburg","lat":51.434999,"lon":6.759562,"geoaddr":"Duisburg, Nordrhein-Westfalen, Deutschland","status":"solved"},{"id":235193,"plz":"40213","city":"D\u00fcsseldorf","lat":51.2254018,"lon":6.7763137,"geoaddr":"D\u00fcsseldorf, Nordrhein-Westfalen, Deutschland","status":"solved"},{"id":235194,"plz":"45127","city":"Essen","lat":51.4582235,"lon":7.0158171,"geoaddr":"Essen, Nordrhein-Westfalen, Deutschland","status":"solved"},{"id":235195,"plz":"45879","city":"Gelsenkirchen","lat":51.5110321,"lon":7.0960124,"geoaddr":"Gelsenkirchen, Nordrhein-Westfalen, Deutschland","status":"solved"},{"id":235196,"plz":"58095","city":"Hagen","lat":51.3582945,"lon":7.473296,"geoaddr":"Hagen, Nordrhein-Westfalen, Deutschland","status":"solved"},{"id":235197,"plz":"59065","city":"Hamm","lat":51.6804093,"lon":7.815197,"geoaddr":"Hamm, Nordrhein-Westfalen, Deutschland","status":"solved"},{"id":235199,"plz":"37671","city":"H\u00f6xter","lat":51.7747369,"lon":9.3816877,"geoaddr":"H\u00f6xter, Kreis H\u00f6xter, Nordrhein-Westfalen, 37671, Deutschland","status":"solved"},{"id":235201,"plz":"47803","city":"Krefeld","lat":51.3331205,"lon":6.5623343,"geoaddr":"Krefeld, Nordrhein-Westfalen, Deutschland","status":"solved"},{"id":235203,"plz":"45468","city":"M\u00fclheim","lat":51.4272925,"lon":6.8829192,"geoaddr":"M\u00fclheim an der Ruhr, Nordrhein-Westfalen, Deutschland","status":"solved"},{"id":235205,"plz":"46045","city":"Oberhausen","lat":51.4696137,"lon":6.8514435,"geoaddr":"Oberhausen, Nordrhein-Westfalen, Deutschland","status":"solved"},{"id":235206,"plz":"42853","city":"Remscheid","lat":51.1798706,"lon":7.1943544,"geoaddr":"Remscheid, Nordrhein-Westfalen, Deutschland","status":"solved"},{"id":235208,"plz":"41747","city":"Viersen","lat":51.2562118,"lon":6.3905476,"geoaddr":"Viersen, Kreis Viersen, Nordrhein-Westfalen, Deutschland","status":"solved"},{"id":235210,"plz":"42275","city":"Wuppertal","lat":51.264018,"lon":7.1780374,"geoaddr":"Wuppertal, Nordrhein-Westfalen, Deutschland","status":"solved"},{"id":235211,"plz":"64646","city":"Heppenheim","lat":49.6408048,"lon":8.6372164,"geoaddr":"Heppenheim, Kreis Bergstra\u00dfe, Hessen, 64646, Deutschland","status":"solved"},{"id":235216,"plz":"49074","city":"Osnabr\u00fcck","lat":52.2719595,"lon":8.047635,"geoaddr":"Osnabr\u00fcck, Niedersachsen, Deutschland","status":"solved"},{"id":235217,"plz":"65421","city":"Gro\u00df-Gerau","lat":49.9194456,"lon":8.4852426,"geoaddr":"Gro\u00df-Gerau, Kreis Gro\u00df-Gerau, Hessen, 64521, Deutschland","status":"solved"},{"id":235218,"plz":"32051","city":"Herford,","lat":52.1152245,"lon":8.6711118,"geoaddr":"Herford-Stadt, Herford, Kreis Herford, Nordrhein-Westfalen, Deutschland","status":"solved"},{"id":235220,"plz":"32756","city":"Detmold","lat":51.936284,"lon":8.8791526,"geoaddr":"Detmold, Kreis Lippe, Nordrhein-Westfalen, Deutschland","status":"solved"},{"id":235221,"plz":"32423","city":"Minden","lat":52.2881045,"lon":8.9168852,"geoaddr":"Minden, Kreis Minden-L\u00fcbbecke, Nordrhein-Westfalen, Deutschland","status":"solved"},{"id":235223,"plz":"57072","city":"Siegen","lat":50.8749804,"lon":8.0227233,"geoaddr":"Siegen, Kreis Siegen-Wittgenstein, Nordrhein-Westfalen, Deutschland","status":"solved"},{"id":235226,"plz":"53474","city":"Bad Neuenahr-Ahrweiler,","lat":50.5444551,"lon":7.1186671,"geoaddr":"Bad Neuenahr-Ahrweiler, Landkreis Ahrweiler, Rheinland-Pfalz, 53474, Deutschland","status":"solved"},{"id":235228,"plz":"55232","city":"Alzey,","lat":49.7455695,"lon":8.1150946,"geoaddr":"Alzey, Landkreis Alzey-Worms, Rheinland-Pfalz, Deutschland","status":"solved"},{"id":235233,"plz":"55765","city":"Birkenfeld,","lat":49.6488236,"lon":7.1647477,"geoaddr":"Birkenfeld, Landkreis Birkenfeld, Rheinland-Pfalz, Deutschland","status":"solved"},{"id":235235,"plz":"65307","city":"Bad Schwalbach","lat":50.141688,"lon":8.071992,"geoaddr":"Bad Schwalbach, Rheingau-Taunus-Kreis, Hessen, 65307, Deutschland","status":"solved"},{"id":235238,"plz":"53879","city":"Euskirchen","lat":50.66129,"lon":6.7871681,"geoaddr":"Euskirchen, Kreis Euskirchen, Nordrhein-Westfalen, Deutschland","status":"solved"},{"id":235239,"plz":"76726","city":"Germersheim,","lat":49.2222749,"lon":8.36659,"geoaddr":"Germersheim, Landkreis Germersheim, Rheinland-Pfalz, 76726, Deutschland","status":"solved"},{"id":235241,"plz":"67657","city":"Kaiserslautern,","lat":49.4432174,"lon":7.7689951,"geoaddr":"Kaiserslautern, Rheinland-Pfalz, Deutschland","status":"solved"},{"id":235242,"plz":"66869","city":"Kusel,","lat":49.5399844,"lon":7.4008479,"geoaddr":"Kusel, Kusel-Altenglan, Landkreis Kusel, Rheinland-Pfalz, 66869, Deutschland","status":"solved"},{"id":235244,"plz":"55218","city":"Ingelheim","lat":49.9752749,"lon":8.0547274,"geoaddr":"Ingelheim am Rhein, Landkreis Mainz-Bingen, Rheinland-Pfalz, Deutschland","status":"solved"},{"id":235246,"plz":"56068","city":"Koblenz,","lat":50.3533278,"lon":7.5943951,"geoaddr":"Koblenz, Rheinland-Pfalz, Deutschland","status":"solved"},{"id":235247,"plz":"40822","city":"Mettmann","lat":51.2527778,"lon":6.9777778,"geoaddr":"Mettmann, Kreis Mettmann, Nordrhein-Westfalen, 40822, Deutschland","status":"solved"},{"id":235249,"plz":"57462","city":"Olpe","lat":51.0297603,"lon":7.8424193,"geoaddr":"Olpe, Kreis Olpe, Nordrhein-Westfalen, 57462, Deutschland","status":"solved"},{"id":235250,"plz":"33102","city":"Paderborn","lat":51.71895955,"lon":8.7648697782,"geoaddr":"Paderborn, Kreis Paderborn, Nordrhein-Westfalen, Deutschland","status":"solved"},{"id":235251,"plz":"45657","city":"Recklinghausen","lat":51.6143815,"lon":7.1978546,"geoaddr":"Recklinghausen, Kreis Recklinghausen, Nordrhein-Westfalen, Deutschland","status":"solved"},{"id":235252,"plz":"24768","city":"Rendsburg","lat":54.3000225,"lon":9.6516356,"geoaddr":"Rendsburg, Rendsburg-Eckernf\u00f6rde, Schleswig-Holstein, 24768, Deutschland","status":"solved"},{"id":235253,"plz":"50126","city":"Bergheim","lat":50.9540457,"lon":6.6410004,"geoaddr":"Bergheim, Rhein-Erft-Kreis, Nordrhein-Westfalen, Deutschland","status":"solved"},{"id":235254,"plz":"56130","city":"Bad Ems,","lat":50.3352062,"lon":7.7128538,"geoaddr":"Bad Ems, Bad Ems-Nassau, Rhein-Lahn-Kreis, Rheinland-Pfalz, 56130, Deutschland","status":"solved"},{"id":235255,"plz":"55469","city":"Simmern\/Hunsr\u00fcck,","lat":49.9834956,"lon":7.5260197,"geoaddr":"Simmern\/Hunsr\u00fcck, Simmern-Rheinb\u00f6llen, Rhein-Hunsr\u00fcck-Kreis, Rheinland-Pfalz, 55469, Deutschland","status":"solved"},{"id":235257,"plz":"59494","city":"Soest","lat":51.5725501,"lon":8.1061259,"geoaddr":"Soest, Kreis Soest, Nordrhein-Westfalen, 59494, Deutschland","status":"solved"},{"id":235258,"plz":"76829","city":"Landau","lat":49.1982825,"lon":8.1123441,"geoaddr":"Landau in der Pfalz, Rheinland-Pfalz, Deutschland","status":"solved"},{"id":235259,"plz":"66953","city":"Pirmasens,","lat":49.1996961,"lon":7.6087847,"geoaddr":"Pirmasens, Rheinland-Pfalz, Deutschland","status":"solved"},{"id":235262,"plz":"56410","city":"Montabaur,","lat":50.4362219,"lon":7.8302494,"geoaddr":"Montabaur, Westerwaldkreis, Rheinland-Pfalz, Deutschland","status":"solved"},{"id":235264,"plz":"46483","city":"Wesel","lat":51.6576909,"lon":6.617087,"geoaddr":"Wesel, Kreis Wesel, Nordrhein-Westfalen, Deutschland","status":"solved"},{"id":235266,"plz":"55116","city":"Mainz,","lat":50.0012314,"lon":8.2762513,"geoaddr":"Mainz, Rheinland-Pfalz, Deutschland","status":"solved"},{"id":235267,"plz":"19053","city":"Schwerin","lat":53.6288297,"lon":11.4148038,"geoaddr":"Schwerin, Mecklenburg-Vorpommern, Deutschland","status":"solved"},{"id":235268,"plz":"70161","city":"Stuttgart","lat":48.7784485,"lon":9.1800132,"geoaddr":"Stuttgart, Baden-W\u00fcrttemberg, Deutschland","status":"solved"},{"id":235270,"plz":"04600","city":"Altenburg","lat":50.9852411,"lon":12.4340988,"geoaddr":"Altenburg, Altenburger Land, Th\u00fcringen, 04600, Deutschland","status":"solved"},{"id":235272,"plz":"92224","city":"Amberg","lat":49.4454211,"lon":11.858728,"geoaddr":"Amberg, Bayern, 92224, Deutschland","status":"solved"},{"id":235274,"plz":"26603","city":"Aurich","lat":53.4695604,"lon":7.4823808,"geoaddr":"Aurich, Landkreis Aurich, Niedersachsen, Deutschland","status":"solved"},{"id":235277,"plz":"75365","city":"Calw","lat":48.7112108,"lon":8.7452043,"geoaddr":"Calw, Verwaltungsgemeinschaft Calw, Landkreis Calw, Baden-W\u00fcrttemberg, 75365, Deutschland","status":"solved"},{"id":235278,"plz":"29221","city":"Celle","lat":52.624056,"lon":10.081052,"geoaddr":"Celle, Landkreis Celle, Niedersachsen, Deutschland","status":"solved"},{"id":235279,"plz":"49661","city":"Cloppenburg","lat":52.8461339,"lon":8.0438783,"geoaddr":"Cloppenburg, Landkreis Cloppenburg, Niedersachsen, 49661, Deutschland","status":"solved"},{"id":235281,"plz":"64276","city":"Darmstadt","lat":49.872775,"lon":8.651177,"geoaddr":"Darmstadt, Hessen, Deutschland","status":"solved"},{"id":235284,"plz":"49716","city":"Meppen","lat":52.6947452,"lon":7.2909824,"geoaddr":"Meppen, Landkreis Emsland, Niedersachsen, 49716, Deutschland","status":"solved"},{"id":235285,"plz":"26441","city":"Jever","lat":53.5736426,"lon":7.9020696,"geoaddr":"Jever, Landkreis Friesland, Niedersachsen, 26441, Deutschland","status":"solved"},{"id":235288,"plz":"35390","city":"Gie\u00dfen","lat":50.5862066,"lon":8.6742306,"geoaddr":"Gie\u00dfen, Landkreis Gie\u00dfen, Hessen, Deutschland","status":"solved"},{"id":235292,"plz":"48529","city":"Nordhorn","lat":52.4359731,"lon":7.0707659,"geoaddr":"Nordhorn, Landkreis Grafschaft Bentheim, Niedersachsen, Deutschland","status":"solved"},{"id":235299,"plz":"38350","city":"Helmstedt","lat":52.2277037,"lon":11.0104702,"geoaddr":"Helmstedt, Landkreis Helmstedt, Niedersachsen, 38350, Deutschland","status":"solved"},{"id":235302,"plz":"31134","city":"Hildesheim","lat":52.1521636,"lon":9.9513046,"geoaddr":"Hildesheim, Landkreis Hildesheim, Niedersachsen, Deutschland","status":"solved"},{"id":235303,"plz":"59872","city":"Meschede","lat":51.3436532,"lon":8.2859257,"geoaddr":"Meschede, Hochsauerlandkreis, Nordrhein-Westfalen, 59872, Deutschland","status":"solved"},{"id":235306,"plz":"39288","city":"Burg","lat":49.9600346,"lon":6.3512069,"geoaddr":"Burg, S\u00fcdeifel, Eifelkreis Bitburg-Pr\u00fcm, Rheinland-Pfalz, Deutschland","status":"solved"},{"id":235309,"plz":"35576","city":"Wetzlar","lat":50.5525346,"lon":8.5074406,"geoaddr":"Wetzlar, Lahn-Dill-Kreis, Hessen, Deutschland","status":"solved"},{"id":235310,"plz":"26789","city":"Leer","lat":53.2327625,"lon":7.4577265,"geoaddr":"Leer, Landkreis Leer, Niedersachsen, 26789, Deutschland","status":"solved"},{"id":235311,"plz":"29439","city":"L\u00fcchow","lat":53.6893717,"lon":10.5322354,"geoaddr":"L\u00fcchow, Sandesneben-Nusse, Herzogtum Lauenburg, Schleswig-Holstein, Deutschland","status":"solved"},{"id":235316,"plz":"35043","city":"Marburg","lat":50.8090106,"lon":8.7704695,"geoaddr":"Marburg, Landkreis Marburg-Biedenkopf, Hessen, Deutschland","status":"solved"},{"id":235321,"plz":"99734","city":"Nordhausen","lat":51.5051574,"lon":10.7925317,"geoaddr":"Nordhausen, Landkreis Nordhausen, Th\u00fcringen, 99734, Deutschland","status":"solved"},{"id":235323,"plz":"37154","city":"Northeim","lat":51.705401,"lon":9.9972782,"geoaddr":"Northeim, Landkreis Northeim, Niedersachsen, 37154, Deutschland","status":"solved"},{"id":235326,"plz":"27793","city":"Wildeshausen","lat":52.897103,"lon":8.4364342,"geoaddr":"Wildeshausen, Landkreis Oldenburg, Niedersachsen, 27793, Deutschland","status":"solved"},{"id":235328,"plz":"27711","city":"Osterholz-Scharmbeck","lat":53.2281763,"lon":8.7948239,"geoaddr":"Osterholz-Scharmbeck, Landkreis Osterholz, Niedersachsen, 27711, Deutschland","status":"solved"},{"id":235330,"plz":"19348","city":"Perleberg","lat":53.0762716,"lon":11.8627933,"geoaddr":"Perleberg, Prignitz, Brandenburg, 19348, Deutschland","status":"solved"},{"id":235331,"plz":"88212","city":"Ravensburg","lat":47.7811014,"lon":9.612468,"geoaddr":"Ravensburg, Verwaltungsverband Mittleres Schussental, Landkreis Ravensburg, Baden-W\u00fcrttemberg, Deutschland","status":"solved"},{"id":235332,"plz":"18273","city":"G\u00fcstrow","lat":53.7936523,"lon":12.1759661,"geoaddr":"G\u00fcstrow, Landkreis Rostock, Mecklenburg-Vorpommern, Deutschland","status":"solved"},{"id":235333,"plz":"27356","city":"Rotenburg","lat":53.1108906,"lon":9.4049292,"geoaddr":"Rotenburg, Landkreis Rotenburg (W\u00fcmme), Niedersachsen, 27356, Deutschland","status":"solved"},{"id":235334,"plz":"06217","city":"Merseburg,","lat":51.3564413,"lon":11.996148,"geoaddr":"Merseburg, Saalekreis, Sachsen-Anhalt, 06217, Deutschland","status":"solved"},{"id":235336,"plz":"66718","city":"Saarlouis","lat":49.3164661,"lon":6.749846,"geoaddr":"Saarlouis, Landkreis Saarlouis, Saarland, 66740, Deutschland","status":"solved"},{"id":235337,"plz":"31655","city":"Stadthagen","lat":52.3289688,"lon":9.2053496,"geoaddr":"Stadthagen, Landkreis Schaumburg, Niedersachsen, 31655, Deutschland","status":"solved"},{"id":235338,"plz":"98617","city":"Meiningen","lat":50.57342505,"lon":10.4283711376,"geoaddr":"Meiningen, Kernstadt Meiningen, Meiningen, Landkreis Schmalkalden-Meiningen, Th\u00fcringen, 98617, Deutschland","status":"solved"},{"id":235340,"plz":"99610","city":"S\u00f6mmerda","lat":51.1618258,"lon":11.1174874,"geoaddr":"S\u00f6mmerda, Landkreis S\u00f6mmerda, Th\u00fcringen, 99610, Deutschland","status":"solved"},{"id":235342,"plz":"03149","city":"Forst","lat":50.8043254,"lon":7.6827244,"geoaddr":"Forst, Hamm (Sieg), Landkreis Altenkirchen, Rheinland-Pfalz, Deutschland","status":"solved"},{"id":235345,"plz":"94315","city":"Straubing","lat":48.8819801,"lon":12.569716,"geoaddr":"Straubing, Bayern, 94315, Deutschland","status":"solved"},{"id":235348,"plz":"17291","city":"Prenzlau","lat":53.3167,"lon":13.866575,"geoaddr":"Prenzlau, Uckermark, Brandenburg, 17291, Deutschland","status":"solved"},{"id":235349,"plz":"29525","city":"Uelzen","lat":52.9666845,"lon":10.5584863,"geoaddr":"Uelzen, Niedersachsen, 29525, Deutschland","status":"solved"},{"id":235351,"plz":"27283","city":"Verden","lat":52.922341,"lon":9.228153,"geoaddr":"Verden, Verden (Aller), Landkreis Verden, Niedersachsen, 27283, Deutschland","status":"solved"},{"id":235354,"plz":"18437","city":"Stralsund","lat":54.3096314,"lon":13.0820846,"geoaddr":"Stralsund, Vorpommern-R\u00fcgen, Mecklenburg-Vorpommern, Deutschland","status":"solved"},{"id":235357,"plz":"99510","city":"Apolda","lat":51.0227878,"lon":11.5129742,"geoaddr":"Apolda, Landkreis Weimarer Land, Th\u00fcringen, 99510, Deutschland","status":"solved"},{"id":235359,"plz":"26919","city":"Brake","lat":53.3256109,"lon":8.4806296,"geoaddr":"Brake, Landkreis Wesermarsch, Niedersachsen, 26919, Deutschland","status":"solved"},{"id":235363,"plz":"38300","city":"Wolfenb\u00fcttel","lat":52.1625283,"lon":10.5348215,"geoaddr":"Wolfenb\u00fcttel, Landkreis Wolfenb\u00fcttel, Niedersachsen, Deutschland","status":"solved"},{"id":235364,"plz":"52525","city":"Heinsberg","lat":51.0654268,"lon":6.0984461,"geoaddr":"Heinsberg, Kreis Heinsberg, Nordrhein-Westfalen, 52525, Deutschland","status":"solved"},{"id":235365,"plz":"51643","city":"Gummersbach","lat":51.0277658,"lon":7.5630545,"geoaddr":"Gummersbach, Oberbergischer Kreis, Nordrhein-Westfalen, Deutschland","status":"solved"},{"id":235367,"plz":"86551","city":"Aichach","lat":48.4591478,"lon":11.1309953,"geoaddr":"Aichach, Landkreis Aichach-Friedberg, Bayern, 86551, Deutschland","status":"solved"},{"id":235370,"plz":"63736","city":"Aschaffenburg","lat":49.9740542,"lon":9.1493636,"geoaddr":"Aschaffenburg, Bayern, Deutschland","status":"solved"},{"id":235373,"plz":"83646","city":"Bad T\u00f6lz","lat":47.7610641,"lon":11.5582933,"geoaddr":"Bad T\u00f6lz, Landkreis Bad T\u00f6lz-Wolfratshausen, Bayern, 83646, Deutschland","status":"solved"},{"id":235375,"plz":"02620","city":"Bautzen","lat":51.1813907,"lon":14.4275735,"geoaddr":"Bautzen - Budy\u0161in, Bautzen, Sachsen, 02625, Deutschland","status":"solved"},{"id":235376,"plz":"95440","city":"Bayreuth","lat":49.9427202,"lon":11.5763079,"geoaddr":"Bayreuth, Bayern, Deutschland","status":"solved"},{"id":235377,"plz":"83423","city":"Bad Reichenhall","lat":47.7222676,"lon":12.8760923,"geoaddr":"Bad Reichenhall, Landkreis Berchtesgadener Land, Bayern, 83435, Deutschland","status":"solved"},{"id":235378,"plz":"88396","city":"Biberach","lat":48.0984413,"lon":9.7899938,"geoaddr":"Biberach an der Ri\u00df, Verwaltungsgemeinschaft Biberach an der Ri\u00df, Landkreis Biberach, Baden-W\u00fcrttemberg, 88400, Deutschland","status":"solved"},{"id":235380,"plz":"88041","city":"Friedrichshafen","lat":47.6500279,"lon":9.4800858,"geoaddr":"Friedrichshafen, Verwaltungsgemeinschaft Friedrichshafen, Bodenseekreis, Baden-W\u00fcrttemberg, Deutschland","status":"solved"},{"id":235381,"plz":"79081","city":"Freiburg","lat":47.9960901,"lon":7.8494005,"geoaddr":"Freiburg im Breisgau, Baden-W\u00fcrttemberg, Deutschland","status":"solved"},{"id":235385,"plz":"94455","city":"Deggendorf","lat":48.8333535,"lon":12.96205,"geoaddr":"Deggendorf, Landkreis Deggendorf, Bayern, 94469, Deutschland","status":"solved"},{"id":235389,"plz":"85560","city":"Ebersberg","lat":48.0765786,"lon":11.9647521,"geoaddr":"Ebersberg, Landkreis Ebersberg, Bayern, 85560, Deutschland","status":"solved"},{"id":235390,"plz":"85072","city":"Eichst\u00e4tt","lat":48.8933417,"lon":11.1838965,"geoaddr":"Eichst\u00e4tt, Landkreis Eichst\u00e4tt, Bayern, 85072, Deutschland","status":"solved"},{"id":235392,"plz":"75110","city":"Pforzheim","lat":48.8908846,"lon":8.7029532,"geoaddr":"Pforzheim, Baden-W\u00fcrttemberg, Deutschland","status":"solved"},{"id":235394,"plz":"91013","city":"Erlangen","lat":49.5928616,"lon":11.0056,"geoaddr":"Erlangen, Bayern, 91052, Deutschland","status":"solved"},{"id":235396,"plz":"73726","city":"Esslingen","lat":48.7427584,"lon":9.3071685,"geoaddr":"Esslingen am Neckar, Landkreis Esslingen, Baden-W\u00fcrttemberg, Deutschland","status":"solved"},{"id":235398,"plz":"85316","city":"Freising","lat":48.4008273,"lon":11.7439565,"geoaddr":"Freising, Landkreis Freising, Bayern, Deutschland","status":"solved"},{"id":235399,"plz":"72236","city":"Freudenstadt","lat":48.4637727,"lon":8.4111727,"geoaddr":"Freudenstadt, Vereinbarte Verwaltungsgemeinschaft Freudenstadt, Landkreis Freudenstadt, Baden-W\u00fcrttemberg, 72250, Deutschland","status":"solved"},{"id":235401,"plz":"82244","city":"F\u00fcrstenfeldbruck","lat":48.1813797,"lon":11.2382125,"geoaddr":"F\u00fcrstenfeldbruck, Landkreis F\u00fcrstenfeldbruck, Bayern, 82256, Deutschland","status":"solved"},{"id":235403,"plz":"82455","city":"Garmisch-Partenkirchen","lat":47.4923741,"lon":11.0962815,"geoaddr":"Garmisch-Partenkirchen, Landkreis Garmisch-Partenkirchen, Bayern, Deutschland","status":"solved"},{"id":235404,"plz":"73008","city":"G\u00f6ppingen","lat":48.7031377,"lon":9.6541116,"geoaddr":"G\u00f6ppingen, Vereinbarte Verwaltungsgemeinschaft der Stadt G\u00f6ppingen, Landkreis G\u00f6ppingen, Baden-W\u00fcrttemberg, Deutschland","status":"solved"},{"id":235406,"plz":"89303","city":"G\u00fcnzburg","lat":48.4539028,"lon":10.2785509,"geoaddr":"G\u00fcnzburg, Landkreis G\u00fcnzburg, Bayern, 89312, Deutschland","status":"solved"},{"id":235408,"plz":"89518","city":"Heidenheim","lat":48.6767637,"lon":10.152923,"geoaddr":"Heidenheim an der Brenz, Verwaltungsgemeinschaft Heidenheim an der Brenz, Landkreis Heidenheim, Baden-W\u00fcrttemberg, Deutschland","status":"solved"},{"id":235409,"plz":"74064","city":"Heilbronn","lat":49.142291,"lon":9.218655,"geoaddr":"Heilbronn, Baden-W\u00fcrttemberg, Deutschland","status":"solved"},{"id":235411,"plz":"74643","city":"K\u00fcnzelsau","lat":49.2803765,"lon":9.6901512,"geoaddr":"K\u00fcnzelsau, Verwaltungsgemeinschaft K\u00fcnzelsau, Hohenlohekreis, Baden-W\u00fcrttemberg, 74653, Deutschland","status":"solved"},{"id":235412,"plz":"76126","city":"Karlsruhe","lat":49.0068705,"lon":8.4034195,"geoaddr":"Karlsruhe, Baden-W\u00fcrttemberg, Deutschland","status":"solved"},{"id":235413,"plz":"93303","city":"Kelheim","lat":48.9187285,"lon":11.8727886,"geoaddr":"Kelheim, Landkreis Kelheim, Bayern, 93309, Deutschland","status":"solved"},{"id":235414,"plz":"97318","city":"Kitzingen","lat":49.7339751,"lon":10.161216,"geoaddr":"Kitzingen, Landkreis Kitzingen, Bayern, Deutschland","status":"solved"},{"id":235415,"plz":"78412","city":"Konstanz","lat":47.659216,"lon":9.1750718,"geoaddr":"Konstanz, Verwaltungsgemeinschaft Konstanz, Landkreis Konstanz, Baden-W\u00fcrttemberg, Deutschland","status":"solved"},{"id":235416,"plz":"96305","city":"Kronach","lat":50.2397846,"lon":11.3277669,"geoaddr":"Kronach, Landkreis Kronach, Bayern, 96317, Deutschland","status":"solved"},{"id":235418,"plz":"04550","city":"Borna","lat":51.1241649,"lon":12.4999055,"geoaddr":"Borna, Landkreis Leipzig, Sachsen, 04552, Deutschland","status":"solved"},{"id":235419,"plz":"84036","city":"Landshut","lat":48.536217,"lon":12.1516551,"geoaddr":"Landshut, Bayern, Deutschland","status":"solved"},{"id":235420,"plz":"96203","city":"Lichtenfels","lat":50.14568,"lon":11.06382,"geoaddr":"Lichtenfels, Landkreis Lichtenfels, Bayern, 96215, Deutschland","status":"solved"},{"id":235422,"plz":"88105","city":"Lindau","lat":47.550753,"lon":9.6926624,"geoaddr":"Lindau (Bodensee), Landkreis Lindau, Bayern, 88131, Deutschland","status":"solved"},{"id":235429,"plz":"83711","city":"Miesbach","lat":47.790025,"lon":11.8335417,"geoaddr":"Miesbach, Landkreis Miesbach, Bayern, 83714, Deutschland","status":"solved"},{"id":235430,"plz":"63885","city":"Miltenberg","lat":49.7017584,"lon":9.2559718,"geoaddr":"Miltenberg, Landkreis Miltenberg, Bayern, 63897, Deutschland","status":"solved"},{"id":235433,"plz":"81507","city":"M\u00fcnchen","lat":48.1371079,"lon":11.5753822,"geoaddr":"M\u00fcnchen, Bayern, Deutschland","status":"solved"},{"id":235434,"plz":"74819","city":"Mosbach","lat":49.3521085,"lon":9.1460205,"geoaddr":"Mosbach, Verwaltungsgemeinschaft Mosbach, Neckar-Odenwald-Kreis, Baden-W\u00fcrttemberg, 74821, Deutschland","status":"solved"},{"id":235439,"plz":"89207","city":"Neu-Ulm","lat":48.3954965,"lon":10.00589,"geoaddr":"Neu-Ulm, Landkreis Neu-Ulm, Bayern, Deutschland","status":"solved"},{"id":235441,"plz":"91205","city":"Lauf","lat":48.6485831,"lon":8.1292199,"geoaddr":"Lauf, Verwaltungsgemeinschaft Achern, Ortenaukreis, Baden-W\u00fcrttemberg, 77886, Deutschland","status":"solved"},{"id":235442,"plz":"87527","city":"Sonthofen","lat":47.5047006,"lon":10.3061977,"geoaddr":"Sonthofen, Landkreis Oberallg\u00e4u, Bayern, 87527, Deutschland","status":"solved"},{"id":235443,"plz":"77609","city":"Offenburg","lat":48.4716556,"lon":7.944378,"geoaddr":"Offenburg, Verwaltungsgemeinschaft Offenburg, Ortenaukreis, Baden-W\u00fcrttemberg, Deutschland","status":"solved"},{"id":235444,"plz":"73428","city":"Aalen","lat":48.8362705,"lon":10.0931765,"geoaddr":"Aalen, Verwaltungsgemeinschaft Aalen, Ostalbkreis, Baden-W\u00fcrttemberg, Deutschland","status":"solved"},{"id":235445,"plz":"87610","city":"Marktoberdorf","lat":47.7750654,"lon":10.6170847,"geoaddr":"Marktoberdorf, Landkreis Ostallg\u00e4u, Bayern, 87616, Deutschland","status":"solved"},{"id":235446,"plz":"94032","city":"Passau","lat":48.5748229,"lon":13.4609744,"geoaddr":"Passau, Bayern, Deutschland","status":"solved"},{"id":235448,"plz":"85264","city":"Pfaffenhofen","lat":49.0641578,"lon":8.9753958,"geoaddr":"Pfaffenhofen, Verwaltungsverband Oberes Zaberg\u00e4u, Landkreis Heilbronn, Baden-W\u00fcrttemberg, 74397, Deutschland","status":"solved"},{"id":235449,"plz":"94202","city":"Regen","lat":48.9700842,"lon":13.1262631,"geoaddr":"Regen, Landkreis Regen, Bayern, 94209, Deutschland","status":"solved"},{"id":235451,"plz":"71328","city":"Waiblingen","lat":48.8425793,"lon":9.3305129,"geoaddr":"Waiblingen, Rems-Murr-Kreis, Baden-W\u00fcrttemberg, Deutschland","status":"solved"},{"id":235452,"plz":"72711","city":"Reutlingen","lat":48.4919508,"lon":9.2114144,"geoaddr":"Reutlingen, Landkreis Reutlingen, Baden-W\u00fcrttemberg, Deutschland","status":"solved"},{"id":235453,"plz":"69036","city":"Heidelberg","lat":49.4093582,"lon":8.694724,"geoaddr":"Heidelberg, Baden-W\u00fcrttemberg, Deutschland","status":"solved"},{"id":235454,"plz":"97615","city":"Bad Neustadt","lat":50.322637,"lon":10.2164873,"geoaddr":"Bad Neustadt an der Saale, Landkreis Rh\u00f6n-Grabfeld, Bayern, Deutschland","status":"solved"},{"id":235458,"plz":"78614","city":"Rottweil","lat":48.165531,"lon":8.6251283,"geoaddr":"Rottweil, Verwaltungsgemeinschaft Rottweil, Landkreis Rottweil, Baden-W\u00fcrttemberg, 78628, Deutschland","status":"solved"},{"id":235460,"plz":"74523","city":"Schw\u00e4bisch","lat":48.7999036,"lon":9.7977584,"geoaddr":"Schw\u00e4bisch Gm\u00fcnd, Verwaltungsgemeinschaft Schw\u00e4bisch Gm\u00fcnd, Ostalbkreis, Baden-W\u00fcrttemberg, Deutschland","status":"solved"},{"id":235464,"plz":"72484","city":"Sigmaringen","lat":48.0855844,"lon":9.2178879,"geoaddr":"Sigmaringen, Gemeindeverwaltungsverband Sigmaringen, Landkreis Sigmaringen, Baden-W\u00fcrttemberg, 72488, Deutschland","status":"solved"},{"id":235465,"plz":"95634","city":"Tirschenreuth","lat":49.8780234,"lon":12.3372095,"geoaddr":"Tirschenreuth, Landkreis Tirschenreuth, Bayern, 95643, Deutschland","status":"solved"},{"id":235467,"plz":"72009","city":"T\u00fcbingen","lat":48.5236164,"lon":9.0535531,"geoaddr":"T\u00fcbingen, Landkreis T\u00fcbingen, Baden-W\u00fcrttemberg, Deutschland","status":"solved"},{"id":235469,"plz":"87713","city":"Mindelheim","lat":48.0464164,"lon":10.4882504,"geoaddr":"Mindelheim, Landkreis Unterallg\u00e4u, Bayern, 87719, Deutschland","status":"solved"},{"id":235472,"plz":"82360","city":"Weilheim","lat":47.6582006,"lon":8.2413047,"geoaddr":"Weilheim, Verwaltungsgemeinschaft Waldshut-Tiengen, Landkreis Waldshut, Baden-W\u00fcrttemberg, 79809, Deutschland","status":"solved"},{"id":235473,"plz":"91780","city":"Wei\u00dfenburg","lat":51.1764915,"lon":11.1007781,"geoaddr":"Wei\u00dfenburg, S\u00f6mmerda, Landkreis S\u00f6mmerda, Th\u00fcringen, 99610, Deutschland","status":"solved"},{"id":235475,"plz":"97067","city":"W\u00fcrzburg","lat":49.79245,"lon":9.932966,"geoaddr":"W\u00fcrzburg, Bayern, Deutschland","status":"solved"},{"id":235476,"plz":"72334","city":"Balingen","lat":48.2737512,"lon":8.8557862,"geoaddr":"Balingen, Gemeindeverwaltungsverband Balingen, Zollernalbkreis, Baden-W\u00fcrttemberg, Deutschland","status":"solved"},{"id":235477,"plz":"08067","city":"Zwickau","lat":50.7185043,"lon":12.4939267,"geoaddr":"Zwickau, Sachsen, Deutschland","status":"solved"},{"id":235480,"plz":"65719","city":"Hofheim","lat":50.086546,"lon":8.447324,"geoaddr":"Hofheim am Taunus, Main-Taunus-Kreis, Hessen, Deutschland","status":"solved"},{"id":235481,"plz":"01968","city":"Senftenberg","lat":51.5191742,"lon":14.0046541,"geoaddr":"Senftenberg, Oberspreewald-Lausitz, Brandenburg, Deutschland","status":"solved"},{"id":235483,"plz":"26105","city":"Oldenburg","lat":53.1389753,"lon":8.2146017,"geoaddr":"Oldenburg, Niedersachsen, Deutschland","status":"solved"},{"id":235485,"plz":"66119","city":"Saarbr\u00fccken","lat":49.234362,"lon":6.996379,"geoaddr":"Saarbr\u00fccken, Regionalverband Saarbr\u00fccken, Saarland, Deutschland","status":"solved"},{"id":235487,"plz":"30169","city":"Hannover,","lat":52.3744779,"lon":9.7385532,"geoaddr":"Hannover, Region Hannover, Niedersachsen, Deutschland","status":"solved"},{"id":235489,"plz":"41460","city":"Neuss","lat":51.1981778,"lon":6.6916476,"geoaddr":"Neuss, Rhein-Kreis Neuss, Nordrhein-Westfalen, Deutschland","status":"solved"},{"id":235490,"plz":"53705","city":"Siegburg","lat":50.7928332,"lon":7.2070774,"geoaddr":"Siegburg, Rhein-Sieg-Kreis, Nordrhein-Westfalen, 53721, Deutschland","status":"solved"},{"id":235491,"plz":"07607","city":"Eisenberg","lat":50.9691346,"lon":11.8961116,"geoaddr":"Eisenberg, Saale-Holzland-Kreis, Th\u00fcringen, 07607, Deutschland","status":"solved"},{"id":235493,"plz":"66406","city":"Homburg","lat":49.3181673,"lon":7.3340336,"geoaddr":"Homburg, Saarpfalz-Kreis, Saarland, 66424, Deutschland","status":"solved"},{"id":235495,"plz":"10179","city":"Berlin","lat":52.5170365,"lon":13.3888599,"geoaddr":"Berlin, Deutschland","status":"solved"},{"id":235496,"plz":"91511","city":"Ansbach","lat":49.3028611,"lon":10.5722288,"geoaddr":"Ansbach, Bayern, 91522, Deutschland","status":"solved"},{"id":235500,"plz":"44777","city":"Bochum","lat":51.4818111,"lon":7.2196635,"geoaddr":"Bochum, Nordrhein-Westfalen, Deutschland","status":"solved"},{"id":235501,"plz":"38100","city":"Braunschweig","lat":52.2646577,"lon":10.5236066,"geoaddr":"Braunschweig, Niedersachsen, Deutschland","status":"solved"},{"id":235503,"plz":"64283","city":"Darmstadt","lat":49.872775,"lon":8.651177,"geoaddr":"Darmstadt, Hessen, Deutschland","status":"solved"},{"id":235504,"plz":"27749","city":"Delmenhorst","lat":53.048095,"lon":8.6286066,"geoaddr":"Delmenhorst, Niedersachsen, Deutschland","status":"solved"},{"id":235507,"plz":"52070","city":"Aachen","lat":50.776351,"lon":6.083862,"geoaddr":"Aachen, St\u00e4dteregion Aachen, Nordrhein-Westfalen, Deutschland","status":"solved"},{"id":235508,"plz":"99084","city":"Erfurt","lat":50.9777974,"lon":11.0287364,"geoaddr":"Erfurt, Th\u00fcringen, Deutschland","status":"solved"},{"id":235509,"plz":"91051","city":"Erlangen","lat":49.5928616,"lon":11.0056,"geoaddr":"Erlangen, Bayern, 91052, Deutschland","status":"solved"},{"id":235510,"plz":"24931","city":"Flensburg","lat":54.7833021,"lon":9.4333264,"geoaddr":"Flensburg, Schleswig-Holstein, Deutschland","status":"solved"},{"id":235513,"plz":"06108","city":"Halle","lat":51.4825041,"lon":11.9705452,"geoaddr":"Halle (Saale), Sachsen-Anhalt, Deutschland","status":"solved"},{"id":235516,"plz":"95015","city":"Hof","lat":50.3219015,"lon":11.9178807,"geoaddr":"Hof, Bayern, Deutschland","status":"solved"},{"id":235517,"plz":"07743","city":"Jena","lat":50.9281717,"lon":11.5879359,"geoaddr":"Jena, Th\u00fcringen, Deutschland","status":"solved"},{"id":235518,"plz":"76124","city":"Karlsruhe","lat":49.0068705,"lon":8.4034195,"geoaddr":"Karlsruhe, Baden-W\u00fcrttemberg, Deutschland","status":"solved"},{"id":235519,"plz":"34117","city":"Kassel","lat":51.3154546,"lon":9.4924096,"geoaddr":"Kassel, Hessen, Deutschland","status":"solved"},{"id":235520,"plz":"87577","city":"Kaufbeuren","lat":47.8803788,"lon":10.622246,"geoaddr":"Kaufbeuren, Bayern, 87600, Deutschland","status":"solved"},{"id":235521,"plz":"87435","city":"Kempten","lat":47.7267063,"lon":10.3168835,"geoaddr":"Kempten (Allg\u00e4u), Bayern, Deutschland","status":"solved"},{"id":235522,"plz":"84026","city":"Landshut","lat":48.536217,"lon":12.1516551,"geoaddr":"Landshut, Bayern, Deutschland","status":"solved"},{"id":235523,"plz":"04092","city":"Leipzig","lat":51.3406321,"lon":12.3747329,"geoaddr":"Leipzig, Sachsen, Deutschland","status":"solved"},{"id":235524,"plz":"68030","city":"Mannheim","lat":49.4892913,"lon":8.4673098,"geoaddr":"Mannheim, Baden-W\u00fcrttemberg, Deutschland","status":"solved"},{"id":235526,"plz":"75158","city":"Pforzheim","lat":48.8908846,"lon":8.7029532,"geoaddr":"Pforzheim, Baden-W\u00fcrttemberg, Deutschland","status":"solved"},{"id":235528,"plz":"91124","city":"Schwabach","lat":49.3295535,"lon":11.0195132,"geoaddr":"Schwabach, Bayern, 91126, Deutschland","status":"solved"},{"id":235529,"plz":"94303","city":"Straubing","lat":48.8819801,"lon":12.569716,"geoaddr":"Straubing, Bayern, 94315, Deutschland","status":"solved"},{"id":235530,"plz":"98527","city":"Suhl","lat":50.6086518,"lon":10.6926437,"geoaddr":"Suhl, Th\u00fcringen, Deutschland","status":"solved"},{"id":235531,"plz":"89070","city":"Ulm","lat":48.3974003,"lon":9.9934336,"geoaddr":"Ulm, Baden-W\u00fcrttemberg, Deutschland","status":"solved"},{"id":235532,"plz":"92224","city":"Amberg","lat":49.4454211,"lon":11.858728,"geoaddr":"Amberg, Bayern, 92224, Deutschland","status":"solved"},{"id":235533,"plz":"96047","city":"Bamberg","lat":49.8916044,"lon":10.8868478,"geoaddr":"Bamberg, Bayern, Deutschland","status":"solved"},{"id":235534,"plz":"95410","city":"Bayreuth","lat":49.9427202,"lon":11.5763079,"geoaddr":"Bayreuth, Bayern, Deutschland","status":"solved"},{"id":235535,"plz":"96450","city":"Coburg","lat":50.258112,"lon":10.964463,"geoaddr":"Coburg, Bayern, 96450, Deutschland","status":"solved"},{"id":235538,"plz":"90762","city":"F\u00fcrth","lat":49.4772475,"lon":10.9893626,"geoaddr":"F\u00fcrth, Bayern, Deutschland","status":"solved"},{"id":235539,"plz":"85049","city":"Ingolstadt","lat":48.7630165,"lon":11.4250395,"geoaddr":"Ingolstadt, Bayern, Deutschland","status":"solved"},{"id":235541,"plz":"56068","city":"Koblenz,","lat":50.3533278,"lon":7.5943951,"geoaddr":"Koblenz, Rheinland-Pfalz, Deutschland","status":"solved"},{"id":235542,"plz":"76829","city":"Landau","lat":49.1982825,"lon":8.1123441,"geoaddr":"Landau in der Pfalz, Rheinland-Pfalz, Deutschland","status":"solved"},{"id":235543,"plz":"67059","city":"Ludwigshafen","lat":49.4704113,"lon":8.4381568,"geoaddr":"Ludwigshafen am Rhein, Rheinland-Pfalz, Deutschland","status":"solved"},{"id":235545,"plz":"80313","city":"M\u00fcnchen","lat":48.1371079,"lon":11.5753822,"geoaddr":"M\u00fcnchen, Bayern, Deutschland","status":"solved"},{"id":235546,"plz":"67433","city":"Neustadt","lat":49.3539802,"lon":8.1350021,"geoaddr":"Neustadt an der Weinstra\u00dfe, Rheinland-Pfalz, Deutschland","status":"solved"},{"id":235547,"plz":"90403","city":"N\u00fcrnberg","lat":49.453872,"lon":11.077298,"geoaddr":"N\u00fcrnberg, Bayern, Deutschland","status":"solved"},{"id":235548,"plz":"94032","city":"Passau","lat":48.5748229,"lon":13.4609744,"geoaddr":"Passau, Bayern, Deutschland","status":"solved"},{"id":235549,"plz":"66953","city":"Pirmasens,","lat":49.1996961,"lon":7.6087847,"geoaddr":"Pirmasens, Rheinland-Pfalz, Deutschland","status":"solved"},{"id":235550,"plz":"14469","city":"Potsdam","lat":52.4009309,"lon":13.0591397,"geoaddr":"Potsdam, Brandenburg, Deutschland","status":"solved"},{"id":235553,"plz":"97421","city":"Schweinfurt","lat":50.0499945,"lon":10.233302,"geoaddr":"Schweinfurt, Bayern, Deutschland","status":"solved"},{"id":235558,"plz":"67547","city":"Worms,","lat":49.6302618,"lon":8.3620898,"geoaddr":"Worms, Rheinland-Pfalz, Deutschland","status":"solved"},{"id":235560,"plz":"66482","city":"Zweibr\u00fccken,","lat":49.248655,"lon":7.3641981,"geoaddr":"Zweibr\u00fccken, Rheinland-Pfalz, 66482, Deutschland","status":"solved"},{"id":235561,"plz":"99423","city":"Weimar","lat":50.9810486,"lon":11.3296637,"geoaddr":"Weimar, Th\u00fcringen, Deutschland","status":"solved"},{"id":235563,"plz":"99974","city":"M\u00fchlhausen","lat":51.2094255,"lon":10.4589044,"geoaddr":"M\u00fchlhausen, Unstrut-Hainich-Kreis, Th\u00fcringen, Deutschland","status":"solved"},{"id":235165,"plz":"29410","city":"Salzwedel,","lat":52.8528456,"lon":11.1539699,"geoaddr":"Salzwedel, Altmarkkreis Salzwedel, Sachsen-Anhalt, 29410, Deutschland","status":"failed"},{"id":235176,"plz":"24837","city":"Schleswig","lat":54.51851,"lon":9.5653284,"geoaddr":"Schleswig, Schleswig-Flensburg, Schleswig-Holstein, 24837, Deutschland","status":"failed"},{"id":235177,"plz":"23795","city":"Bad Segeberg","lat":53.9422672,"lon":10.3137943,"geoaddr":"Bad Segeberg, Kreis Segeberg, Schleswig-Holstein, 23795, Deutschland","status":"failed"},{"id":235178,"plz":"25524","city":"Itzehoe","lat":53.919448,"lon":9.5172441,"geoaddr":"Itzehoe, Kreis Steinburg, Schleswig-Holstein, 25524, Deutschland","status":"failed"},{"id":235180,"plz":"28195","city":"Bremen","lat":53.0758196,"lon":8.8071646,"geoaddr":"Bremen, Deutschland","status":"failed"},{"id":235182,"plz":"04916","city":"Herzberg","lat":51.6565219,"lon":10.3428415,"geoaddr":"Herzberg am Harz, Landkreis G\u00f6ttingen, Niedersachsen, 37412, Deutschland","status":"failed"},{"id":235183,"plz":"58332","city":"Schwelm","lat":51.2841166,"lon":7.2924712,"geoaddr":"Schwelm, Ennepe-Ruhr-Kreis, Nordrhein-Westfalen, 58332, Deutschland","status":"failed"},{"id":235184,"plz":"60311","city":"Frankfurt","lat":50.1106444,"lon":8.6820917,"geoaddr":"Frankfurt am Main, Hessen, Deutschland","status":"failed"},{"id":235187,"plz":"99310","city":"Arnstadt","lat":50.8349097,"lon":10.9461479,"geoaddr":"Arnstadt, Ilm-Kreis, Th\u00fcringen, Deutschland","status":"failed"},{"id":235188,"plz":"33602","city":"Bielefeld","lat":52.0191005,"lon":8.531007,"geoaddr":"Bielefeld, Nordrhein-Westfalen, Deutschland","status":"failed"},{"id":235189,"plz":"53111","city":"Bonn","lat":50.735851,"lon":7.10066,"geoaddr":"Bonn, Nordrhein-Westfalen, Deutschland","status":"failed"},{"id":235190,"plz":"46236","city":"Bottrop","lat":51.521581,"lon":6.929204,"geoaddr":"Bottrop, Nordrhein-Westfalen, Deutschland","status":"failed"},{"id":235198,"plz":"44623","city":"Herne","lat":51.5380394,"lon":7.219985,"geoaddr":"Herne, Nordrhein-Westfalen, Deutschland","status":"failed"},{"id":235200,"plz":"50667","city":"K\u00f6ln","lat":50.938361,"lon":6.959974,"geoaddr":"K\u00f6ln, Nordrhein-Westfalen, Deutschland","status":"failed"},{"id":235202,"plz":"51373","city":"Leverkusen","lat":51.0324743,"lon":6.9881194,"geoaddr":"Leverkusen, Nordrhein-Westfalen, Deutschland","status":"failed"},{"id":235204,"plz":"48143","city":"M\u00fcnster","lat":51.9625101,"lon":7.6251879,"geoaddr":"M\u00fcnster, Nordrhein-Westfalen, Deutschland","status":"failed"},{"id":235207,"plz":"42651","city":"Solingen","lat":51.1721629,"lon":7.0845893,"geoaddr":"Solingen, Nordrhein-Westfalen, Deutschland","status":"failed"},{"id":235209,"plz":"48231","city":"Warendorf","lat":51.9532449,"lon":7.9912335,"geoaddr":"Warendorf, Kreis Warendorf, Nordrhein-Westfalen, 48231, Deutschland","status":"failed"},{"id":235212,"plz":"46325","city":"Borken","lat":51.8443183,"lon":6.8582247,"geoaddr":"Borken, Kreis Borken, Nordrhein-Westfalen, 46325, Deutschland","status":"failed"},{"id":235213,"plz":"48653","city":"Coesfeld","lat":51.9458943,"lon":7.1691108,"geoaddr":"Coesfeld, Kreis Coesfeld, Nordrhein-Westfalen, 48653, Deutschland","status":"failed"},{"id":235214,"plz":"52348","city":"D\u00fcren","lat":50.8031684,"lon":6.4820806,"geoaddr":"D\u00fcren, Kreis D\u00fcren, Nordrhein-Westfalen, Deutschland","status":"failed"},{"id":235215,"plz":"41061","city":"M\u00f6nchengladbach","lat":51.1946983,"lon":6.4353641,"geoaddr":"M\u00f6nchengladbach, Nordrhein-Westfalen, Deutschland","status":"failed"},{"id":235219,"plz":"47533","city":"Kleve","lat":51.7854839,"lon":6.1313674153,"geoaddr":"Kleve, Kreis Kleve, Nordrhein-Westfalen, 47533, Deutschland","status":"failed"},{"id":235222,"plz":"63128","city":"Dietzenbach","lat":50.0171926,"lon":8.784277,"geoaddr":"Dietzenbach, Landkreis Offenbach, Hessen, 63128, Deutschland","status":"failed"},{"id":235224,"plz":"48565","city":"Steinfurt","lat":52.1294289,"lon":7.3903454,"geoaddr":"Steinfurt, Kreis Steinfurt, Nordrhein-Westfalen, 48565, Deutschland","status":"failed"},{"id":235225,"plz":"59425","city":"Unna","lat":51.5348835,"lon":7.689014,"geoaddr":"Unna, Kreis Unna, Nordrhein-Westfalen, Deutschland","status":"failed"},{"id":235227,"plz":"57610","city":"Altenkirchen,","lat":50.6883603,"lon":7.6377853203,"geoaddr":"Altenkirchen (Westerwald), Altenkirchen-Flammersfeld, Landkreis Altenkirchen, Rheinland-Pfalz, 57610, Deutschland","status":"failed"},{"id":235229,"plz":"26655","city":"Westerstede","lat":53.2575197,"lon":7.9273367,"geoaddr":"Westerstede, Landkreis Ammerland, Niedersachsen, 26655, Deutschland","status":"failed"},{"id":235230,"plz":"67098","city":"Bad D\u00fcrkheim,","lat":49.4632944,"lon":8.1705063,"geoaddr":"Bad D\u00fcrkheim, Landkreis Bad D\u00fcrkheim, Rheinland-Pfalz, 67098, Deutschland","status":"failed"},{"id":235231,"plz":"55543","city":"Bad Kreuznach,","lat":49.8431642,"lon":7.8657658,"geoaddr":"Bad Kreuznach, Landkreis Bad Kreuznach, Rheinland-Pfalz, Deutschland","status":"failed"},{"id":235232,"plz":"54516","city":"Wittlich,","lat":49.9850353,"lon":6.88844,"geoaddr":"Wittlich, Landkreis Bernkastel-Wittlich, Rheinland-Pfalz, 54516, Deutschland","status":"failed"},{"id":235234,"plz":"56812","city":"Cochem,","lat":50.1483916,"lon":7.1663195,"geoaddr":"Cochem, Landkreis Cochem-Zell, Rheinland-Pfalz, Deutschland","status":"failed"},{"id":235236,"plz":"67292","city":"Kirchheimbolanden,","lat":49.6644306,"lon":8.0107385,"geoaddr":"Kirchheimbolanden, Donnersbergkreis, Rheinland-Pfalz, 67292, Deutschland","status":"failed"},{"id":235237,"plz":"54634","city":"Bitburg,","lat":49.9732762,"lon":6.524947,"geoaddr":"Bitburg, Eifelkreis Bitburg-Pr\u00fcm, Rheinland-Pfalz, Deutschland","status":"failed"},{"id":235240,"plz":"33324","city":"G\u00fctersloh","lat":51.9063997,"lon":8.3782078,"geoaddr":"G\u00fctersloh, Kreis G\u00fctersloh, Nordrhein-Westfalen, Deutschland","status":"failed"},{"id":235243,"plz":"15848","city":"Beeskow","lat":52.1721569,"lon":14.2471058,"geoaddr":"Beeskow, Oder-Spree, Brandenburg, Deutschland","status":"failed"},{"id":235245,"plz":"58509","city":"L\u00fcdenscheid","lat":51.218116,"lon":7.6395513,"geoaddr":"L\u00fcdenscheid, M\u00e4rkischer Kreis, Nordrhein-Westfalen, Deutschland","status":"failed"},{"id":235248,"plz":"56564","city":"Neuwied,","lat":50.4302393,"lon":7.466302,"geoaddr":"Neuwied, Landkreis Neuwied, Rheinland-Pfalz, Deutschland","status":"failed"},{"id":235256,"plz":"67063","city":"Ludwigshafen","lat":49.4704113,"lon":8.4381568,"geoaddr":"Ludwigshafen am Rhein, Rheinland-Pfalz, Deutschland","status":"failed"},{"id":235260,"plz":"54290","city":"Trier,","lat":49.7596208,"lon":6.6441878,"geoaddr":"Trier, Rheinland-Pfalz, Deutschland","status":"failed"},{"id":235261,"plz":"54550","city":"Daun,","lat":50.1962461,"lon":6.8305031,"geoaddr":"Daun, Landkreis Vulkaneifel, Rheinland-Pfalz, 54550, Deutschland","status":"failed"},{"id":235263,"plz":"24103","city":"Kiel","lat":54.3227085,"lon":10.135555,"geoaddr":"Kiel, Schleswig-Holstein, Deutschland","status":"failed"},{"id":235265,"plz":"39104","city":"Magdeburg,","lat":52.1315889,"lon":11.6399609,"geoaddr":"Magdeburg, Sachsen-Anhalt, Deutschland","status":"failed"},{"id":235269,"plz":"65183","city":"Wiesbaden","lat":50.0820384,"lon":8.2416556,"geoaddr":"Wiesbaden, Hessen, Deutschland","status":"failed"},{"id":235271,"plz":"84503","city":"Alt\u00f6tting","lat":48.2268085,"lon":12.6757914,"geoaddr":"Alt\u00f6tting, Landkreis Alt\u00f6tting, Bayern, 84503, Deutschland","status":"failed"},{"id":235273,"plz":"06366","city":"K\u00f6then","lat":51.7500048,"lon":11.9666985,"geoaddr":"K\u00f6then (Anhalt), Anhalt-Bitterfeld, Sachsen-Anhalt, 06366, Deutschland","status":"failed"},{"id":235275,"plz":"16225","city":"Eberswalde","lat":52.8350807,"lon":13.7996542,"geoaddr":"Eberswalde, Barnim, Brandenburg, Deutschland","status":"failed"},{"id":235276,"plz":"39340","city":"Haldensleben","lat":52.2911243,"lon":11.4132719,"geoaddr":"Haldensleben, B\u00f6rde, Sachsen-Anhalt, 39340, Deutschland","status":"failed"},{"id":235280,"plz":"27474","city":"Cuxhaven","lat":53.86878,"lon":8.698286,"geoaddr":"Cuxhaven, Landkreis Cuxhaven, Niedersachsen, Deutschland","status":"failed"},{"id":235282,"plz":"49356","city":"Diepholz","lat":52.6113677,"lon":8.372661,"geoaddr":"Diepholz, Landkreis Diepholz, Niedersachsen, 49356, Deutschland","status":"failed"},{"id":235283,"plz":"37308","city":"Heilbad","lat":51.3756186,"lon":10.138224,"geoaddr":"Heilbad Heiligenstadt, Landkreis Eichsfeld, Th\u00fcringen, 37308, Deutschland","status":"failed"},{"id":235286,"plz":"36037","city":"Fulda","lat":50.5542328,"lon":9.6770448,"geoaddr":"Fulda, Landkreis Fulda, Hessen, Deutschland","status":"failed"},{"id":235287,"plz":"38518","city":"Gifhorn","lat":52.4827905,"lon":10.5445691,"geoaddr":"Gifhorn, Niedersachsen, 38518, Deutschland","status":"failed"},{"id":235289,"plz":"38640","city":"Goslar","lat":51.9059936,"lon":10.4266284,"geoaddr":"Goslar, Landkreis Goslar, Niedersachsen, Deutschland","status":"failed"},{"id":235290,"plz":"99867","city":"Gotha","lat":50.9494849,"lon":10.7014435,"geoaddr":"Gotha, Landkreis Gotha, Th\u00fcringen, 99867, Deutschland","status":"failed"},{"id":235291,"plz":"37083","city":"G\u00f6ttingen","lat":51.5328328,"lon":9.9351811,"geoaddr":"G\u00f6ttingen, Landkreis G\u00f6ttingen, Niedersachsen, Deutschland","status":"failed"},{"id":235293,"plz":"07973","city":"Greiz","lat":50.6477963,"lon":12.1734848,"geoaddr":"Greiz, Th\u00fcringen, 07973, Deutschland","status":"failed"},{"id":235294,"plz":"31785","city":"Hameln","lat":52.1039941,"lon":9.3561569,"geoaddr":"Hameln, Landkreis Hameln-Pyrmont, Niedersachsen, Deutschland","status":"failed"},{"id":235295,"plz":"21423","city":"Winsen","lat":53.8320018,"lon":10.01568,"geoaddr":"Winsen, Kisdorf, Kreis Segeberg, Schleswig-Holstein, Deutschland","status":"failed"},{"id":235296,"plz":"38820","city":"Halberstadt","lat":51.8953514,"lon":11.0520563,"geoaddr":"Halberstadt, Landkreis Harz, Sachsen-Anhalt, 38820, Deutschland","status":"failed"},{"id":235297,"plz":"14712","city":"Rathenow","lat":52.6063876,"lon":12.3382608,"geoaddr":"Rathenow, Havelland, Brandenburg, 14712, Deutschland","status":"failed"},{"id":235298,"plz":"29683","city":"Bad Fallingbostel","lat":52.8654484,"lon":9.6930195,"geoaddr":"Bad Fallingbostel, Heidekreis, Niedersachsen, 29683, Deutschland","status":"failed"},{"id":235300,"plz":"36251","city":"Bad Hersfeld","lat":50.8681341,"lon":9.7068481,"geoaddr":"Bad Hersfeld, Landkreis Hersfeld-Rotenburg, Hessen, 36251, Deutschland","status":"failed"},{"id":235301,"plz":"98646","city":"Hildburghausen","lat":50.4266327,"lon":10.7300263,"geoaddr":"Hildburghausen, Landkreis Hildburghausen, Th\u00fcringen, 98646, Deutschland","status":"failed"},{"id":235304,"plz":"61352","city":"Bad Homburg","lat":50.2267699,"lon":8.6169093,"geoaddr":"Bad Homburg vor der H\u00f6he, Hochtaunuskreis, Hessen, Deutschland","status":"failed"},{"id":235305,"plz":"37603","city":"Holzminden","lat":51.828835,"lon":9.4466591,"geoaddr":"Holzminden, Landkreis Holzminden, Niedersachsen, 37603, Deutschland","status":"failed"},{"id":235307,"plz":"34117","city":"Kassel","lat":51.3154546,"lon":9.4924096,"geoaddr":"Kassel, Hessen, Deutschland","status":"failed"},{"id":235308,"plz":"99706","city":"Sondershausen","lat":51.3666041,"lon":10.8668419,"geoaddr":"Sondershausen, Kyffh\u00e4userkreis, Th\u00fcringen, 99706, Deutschland","status":"failed"},{"id":235312,"plz":"65549","city":"Limburg","lat":50.3876305,"lon":8.0636197,"geoaddr":"Limburg an der Lahn, Landkreis Limburg-Weilburg, Hessen, Deutschland","status":"failed"},{"id":235313,"plz":"19370","city":"Parchim","lat":53.4258455,"lon":11.8475244,"geoaddr":"Parchim, Ludwigslust-Parchim, Mecklenburg-Vorpommern, Deutschland","status":"failed"},{"id":235314,"plz":"21335","city":"L\u00fcneburg","lat":53.248706,"lon":10.407855,"geoaddr":"L\u00fcneburg, Niedersachsen, Deutschland","status":"failed"},{"id":235315,"plz":"06526","city":"Sangerhausen","lat":51.4729797,"lon":11.2981851,"geoaddr":"Sangerhausen, Mansfeld-S\u00fcdharz, Sachsen-Anhalt, Deutschland","status":"failed"},{"id":235317,"plz":"15306","city":"Seelow","lat":52.5318238,"lon":14.380704,"geoaddr":"Seelow, M\u00e4rkisch-Oderland, Brandenburg, Deutschland","status":"failed"},{"id":235318,"plz":"66651","city":"Merzig","lat":49.4427023,"lon":6.6374902,"geoaddr":"Merzig, Landkreis Merzig-Wadern, Saarland, 66663, Deutschland","status":"failed"},{"id":235319,"plz":"66559","city":"Ottweiler","lat":49.4030447,"lon":7.1631469,"geoaddr":"Ottweiler, Landkreis Neunkirchen, Saarland, 66564, Deutschland","status":"failed"},{"id":235320,"plz":"31582","city":"Nienburg","lat":52.6410849,"lon":9.2181918,"geoaddr":"Nienburg\/Weser, Landkreis Nienburg\/Weser, Niedersachsen, 31582, Deutschland","status":"failed"},{"id":235322,"plz":"23970","city":"Wismar","lat":53.8909832,"lon":11.4647932,"geoaddr":"Wismar, Nordwestmecklenburg, Mecklenburg-Vorpommern, Deutschland","status":"failed"},{"id":235324,"plz":"16515","city":"Oranienburg","lat":52.7529379,"lon":13.2457591,"geoaddr":"Oranienburg, Oberhavel, Brandenburg, 16515, Deutschland","status":"failed"},{"id":235325,"plz":"64711","city":"Erbach","lat":48.3274603,"lon":9.8913803,"geoaddr":"Erbach, Alb-Donau-Kreis, Baden-W\u00fcrttemberg, 89155, Deutschland","status":"failed"},{"id":235327,"plz":"49082","city":"Osnabr\u00fcck","lat":52.2719595,"lon":8.047635,"geoaddr":"Osnabr\u00fcck, Niedersachsen, Deutschland","status":"failed"},{"id":235329,"plz":"31224","city":"Peine","lat":52.3217849,"lon":10.2349489,"geoaddr":"Peine, Landkreis Peine, Niedersachsen, Deutschland","status":"failed"},{"id":235335,"plz":"07318","city":"Saalfeld","lat":50.6481277,"lon":11.3616652,"geoaddr":"Saalfeld\/Saale, Landkreis Saalfeld-Rudolstadt, Th\u00fcringen, 07318, Deutschland","status":"failed"},{"id":235339,"plz":"34576","city":"Homberg","lat":50.6407001,"lon":8.1058112,"geoaddr":"Homberg, Rennerod, Westerwaldkreis, Rheinland-Pfalz, Deutschland","status":"failed"},{"id":235341,"plz":"96515","city":"Sonneberg","lat":50.3575412,"lon":11.1691714,"geoaddr":"Sonneberg, Landkreis Sonneberg, Th\u00fcringen, 96515, Deutschland","status":"failed"},{"id":235343,"plz":"21682","city":"Stade","lat":53.599794,"lon":9.475438,"geoaddr":"Stade, Niedersachsen, Deutschland","status":"failed"},{"id":235344,"plz":"39576","city":"Stendal,","lat":52.6050782,"lon":11.8594279,"geoaddr":"Stendal, Sachsen-Anhalt, 39576, Deutschland","status":"failed"},{"id":235347,"plz":"14943","city":"Luckenwalde","lat":52.0902045,"lon":13.1741882,"geoaddr":"Luckenwalde, Teltow-Fl\u00e4ming, Brandenburg, 14943, Deutschland","status":"failed"},{"id":235350,"plz":"49377","city":"Vechta","lat":52.7310691,"lon":8.2873162,"geoaddr":"Vechta, Landkreis Vechta, Niedersachsen, 49377, Deutschland","status":"failed"},{"id":235352,"plz":"82319","city":"Starnberg","lat":48.0001038,"lon":11.3508972,"geoaddr":"Starnberg, Landkreis Starnberg, Bayern, 82319, Deutschland","status":"failed"},{"id":235353,"plz":"17489","city":"Greifswald","lat":54.095791,"lon":13.3815238,"geoaddr":"Greifswald, Vorpommern-Greifswald, Mecklenburg-Vorpommern, Deutschland","status":"failed"},{"id":235355,"plz":"34497","city":"Korbach","lat":51.2743649,"lon":8.8720648,"geoaddr":"Korbach, Landkreis Waldeck-Frankenberg, Hessen, 34497, Deutschland","status":"failed"},{"id":235356,"plz":"36433","city":"Bad Salzungen","lat":50.812318,"lon":10.2320784,"geoaddr":"Bad Salzungen, Wartburgkreis, Th\u00fcringen, Deutschland","status":"failed"},{"id":235358,"plz":"37269","city":"Eschwege","lat":51.186867,"lon":10.0575056,"geoaddr":"Eschwege, Werra-Mei\u00dfner-Kreis, Hessen, 37269, Deutschland","status":"failed"},{"id":235360,"plz":"61169","city":"Friedberg","lat":50.3352682,"lon":8.7539306,"geoaddr":"Friedberg, Wetteraukreis, Hessen, 61169, Deutschland","status":"failed"},{"id":235361,"plz":"06886","city":"Lutherstadt","lat":51.5283282,"lon":11.5465911,"geoaddr":"Lutherstadt Eisleben, Mansfeld-S\u00fcdharz, Sachsen-Anhalt, 06295, Deutschland","status":"failed"},{"id":235362,"plz":"26409","city":"Wittmund","lat":53.5792685,"lon":7.7815477,"geoaddr":"Wittmund, Landkreis Wittmund, Niedersachsen, 26409, Deutschland","status":"failed"},{"id":235366,"plz":"15907","city":"L\u00fcbben","lat":51.9418987,"lon":13.8963805,"geoaddr":"L\u00fcbben (Spreewald), Dahme-Spreewald, Brandenburg, 15907, Deutschland","status":"failed"},{"id":235368,"plz":"89070","city":"Ulm","lat":48.3974003,"lon":9.9934336,"geoaddr":"Ulm, Baden-W\u00fcrttemberg, Deutschland","status":"failed"},{"id":235369,"plz":"91522","city":"Ansbach","lat":49.3028611,"lon":10.5722288,"geoaddr":"Ansbach, Bayern, 91522, Deutschland","status":"failed"},{"id":235371,"plz":"86150","city":"Augsburg","lat":48.3668041,"lon":10.8986971,"geoaddr":"Augsburg, Bayern, Deutschland","status":"failed"},{"id":235372,"plz":"97685","city":"Bad Kissingen","lat":50.1985698,"lon":10.0746833,"geoaddr":"Bad Kissingen, Landkreis Bad Kissingen, Bayern, 97688, Deutschland","status":"failed"},{"id":235379,"plz":"71006","city":"B\u00f6blingen","lat":48.684969,"lon":9.0113444,"geoaddr":"B\u00f6blingen, Landkreis B\u00f6blingen, Baden-W\u00fcrttemberg, Deutschland","status":"failed"},{"id":235382,"plz":"93404","city":"Cham","lat":49.2178194,"lon":12.6663832,"geoaddr":"Cham, Landkreis Cham, Bayern, 93413, Deutschland","status":"failed"},{"id":235383,"plz":"96412","city":"Coburg","lat":50.258112,"lon":10.964463,"geoaddr":"Coburg, Bayern, 96450, Deutschland","status":"failed"},{"id":235384,"plz":"85221","city":"Dachau","lat":48.2592477,"lon":11.4354419,"geoaddr":"Dachau, Landkreis Dachau, Bayern, 85221, Deutschland","status":"failed"},{"id":235386,"plz":"89401","city":"Dillingen","lat":48.5812547,"lon":10.4951425,"geoaddr":"Dillingen a.d.Donau, Landkreis Dillingen an der Donau, Bayern, 89407, Deutschland","status":"failed"},{"id":235387,"plz":"84125","city":"Dingolfing","lat":48.6300801,"lon":12.4977434,"geoaddr":"Dingolfing, Landkreis Dingolfing-Landau, Bayern, 84130, Deutschland","status":"failed"},{"id":235388,"plz":"86607","city":"Donauw\u00f6rth","lat":48.7180364,"lon":10.7807299,"geoaddr":"Donauw\u00f6rth, Landkreis Donau-Ries, Bayern, 86609, Deutschland","status":"failed"},{"id":235391,"plz":"79301","city":"Emmendingen","lat":48.1206565,"lon":7.850993,"geoaddr":"Emmendingen (Kernstadt), Emmendingen, VVG der Stadt Emmendingen, Landkreis Emmendingen, Baden-W\u00fcrttemberg, 79312, Deutschland","status":"failed"},{"id":235393,"plz":"85422","city":"Erding","lat":48.3064441,"lon":11.9076579,"geoaddr":"Erding, Landkreis Erding, Bayern, 85435, Deutschland","status":"failed"},{"id":235395,"plz":"09456","city":"Annaberg-Buchholz","lat":50.5788781,"lon":13.0106108,"geoaddr":"Annaberg-Buchholz, Erzgebirgskreis, Sachsen, 09456, Deutschland","status":"failed"},{"id":235397,"plz":"91301","city":"Forchheim","lat":49.7187319,"lon":11.0595749,"geoaddr":"Forchheim, Landkreis Forchheim, Bayern, 91301, Deutschland","status":"failed"},{"id":235400,"plz":"94075","city":"Freyung","lat":48.8099603,"lon":13.5491927,"geoaddr":"Freyung, Landkreis Freyung-Grafenau, Bayern, 94078, Deutschland","status":"failed"},{"id":235402,"plz":"90507","city":"Zirndorf","lat":49.445762,"lon":10.9560462,"geoaddr":"Zirndorf, Landkreis F\u00fcrth, Bayern, 90513, Deutschland","status":"failed"},{"id":235405,"plz":"02806","city":"G\u00f6rlitz","lat":51.1563185,"lon":14.991018,"geoaddr":"G\u00f6rlitz, Sachsen, Deutschland","status":"failed"},{"id":235407,"plz":"97431","city":"Ha\u00dffurt","lat":50.0318698,"lon":10.5065562,"geoaddr":"Ha\u00dffurt, Landkreis Ha\u00dfberge, Bayern, 97437, Deutschland","status":"failed"},{"id":235410,"plz":"95004","city":"Hof","lat":50.3219015,"lon":11.9178807,"geoaddr":"Hof, Bayern, Deutschland","status":"failed"},{"id":235417,"plz":"95307","city":"Kulmbach","lat":50.1008448,"lon":11.4479149,"geoaddr":"Kulmbach, Landkreis Kulmbach, Bayern, 95326, Deutschland","status":"failed"},{"id":235423,"plz":"79537","city":"L\u00f6rrach","lat":47.6120896,"lon":7.6607218,"geoaddr":"L\u00f6rrach, Verwaltungsgemeinschaft L\u00f6rrach, Landkreis L\u00f6rrach, Baden-W\u00fcrttemberg, Deutschland","status":"failed"},{"id":235424,"plz":"71638","city":"Ludwigsburg","lat":48.8953937,"lon":9.1895147,"geoaddr":"Ludwigsburg, Landkreis Ludwigsburg, Baden-W\u00fcrttemberg, Deutschland","status":"failed"},{"id":235425,"plz":"97748","city":"Karlstadt","lat":49.9616823,"lon":9.7655121,"geoaddr":"Karlstadt, Landkreis Main-Spessart, Bayern, 97753, Deutschland","status":"failed"},{"id":235426,"plz":"97933","city":"Tauberbischofsheim","lat":49.6229682,"lon":9.6627138,"geoaddr":"Tauberbischofsheim, Verwaltungsgemeinschaft Tauberbischofsheim, Main-Tauber-Kreis, Baden-W\u00fcrttemberg, 97941, Deutschland","status":"failed"},{"id":235427,"plz":"17033","city":"Neubrandenburg","lat":53.5574458,"lon":13.2602781,"geoaddr":"Neubrandenburg, Mecklenburgische Seenplatte, Mecklenburg-Vorpommern, Deutschland","status":"failed"},{"id":235428,"plz":"01651","city":"Mei\u00dfen","lat":51.1630871,"lon":13.4704939,"geoaddr":"Mei\u00dfen, Sachsen, Deutschland","status":"failed"},{"id":235431,"plz":"09599","city":"Freiberg","lat":50.9169415,"lon":13.3428889,"geoaddr":"Freiberg, Mittelsachsen, Sachsen, 09599, Deutschland","status":"failed"},{"id":235432,"plz":"84446","city":"M\u00fchldorf","lat":48.2405007,"lon":12.5250991,"geoaddr":"M\u00fchldorf a. Inn, Landkreis M\u00fchldorf am Inn, Bayern, 84453, Deutschland","status":"failed"},{"id":235435,"plz":"86620","city":"Neuburg","lat":53.9449473,"lon":11.5903337,"geoaddr":"Neuburg, Nordwestmecklenburg, Mecklenburg-Vorpommern, Deutschland","status":"failed"},{"id":235436,"plz":"92304","city":"Neumarkt","lat":49.279624,"lon":11.4594662,"geoaddr":"Neumarkt in der Oberpfalz, Landkreis Neumarkt in der Oberpfalz, Bayern, 92318, Deutschland","status":"failed"},{"id":235437,"plz":"91405","city":"Neustadt","lat":49.3539802,"lon":8.1350021,"geoaddr":"Neustadt an der Weinstra\u00dfe, Rheinland-Pfalz, Deutschland","status":"failed"},{"id":235438,"plz":"92657","city":"Neustadt","lat":49.3539802,"lon":8.1350021,"geoaddr":"Neustadt an der Weinstra\u00dfe, Rheinland-Pfalz, Deutschland","status":"failed"},{"id":235440,"plz":"04855","city":"Torgau","lat":51.5581272,"lon":13.0046538,"geoaddr":"Torgau, Nordsachsen, Sachsen, Deutschland","status":"failed"},{"id":235447,"plz":"76408","city":"Rastatt","lat":48.8574209,"lon":8.2088088,"geoaddr":"Rastatt, Vereinbarte Verwaltungsgemeinschaft Rastatt, Landkreis Rastatt, Baden-W\u00fcrttemberg, 76437, Deutschland","status":"failed"},{"id":235456,"plz":"91152","city":"Roth","lat":50.3088002,"lon":6.3835044,"geoaddr":"Roth bei Pr\u00fcm, Pr\u00fcm, Eifelkreis Bitburg-Pr\u00fcm, Rheinland-Pfalz, Deutschland","status":"failed"},{"id":235457,"plz":"84342","city":"Pfarrkirchen","lat":48.4320329,"lon":12.9386266,"geoaddr":"Pfarrkirchen, Landkreis Rottal-Inn, Bayern, 84347, Deutschland","status":"failed"},{"id":235459,"plz":"01782","city":"Pirna","lat":50.9616923,"lon":13.9386643,"geoaddr":"Pirna, S\u00e4chsische Schweiz-Osterzgebirge, Sachsen, 01796, Deutschland","status":"failed"},{"id":235461,"plz":"92406","city":"Schwandorf","lat":49.3261854,"lon":12.1092708,"geoaddr":"Schwandorf, Landkreis Schwandorf, Bayern, 92421, Deutschland","status":"failed"},{"id":235462,"plz":"97404","city":"Schweinfurt","lat":50.0499945,"lon":10.233302,"geoaddr":"Schweinfurt, Bayern, Deutschland","status":"failed"},{"id":235463,"plz":"78045","city":"Villingen-Schwenningen","lat":48.0632359,"lon":8.4945022,"geoaddr":"Villingen-Schwenningen, Verwaltungsgemeinschaft Villingen-Schwenningen, Schwarzwald-Baar-Kreis, Baden-W\u00fcrttemberg, Deutschland","status":"failed"},{"id":235466,"plz":"83276","city":"Traunstein","lat":47.8701474,"lon":12.6423403,"geoaddr":"Traunstein, Landkreis Traunstein, Bayern, 83278, Deutschland","status":"failed"},{"id":235468,"plz":"78509","city":"Tuttlingen","lat":47.9844315,"lon":8.8186606,"geoaddr":"Tuttlingen, Verwaltungsgemeinschaft Tuttlingen, Landkreis Tuttlingen, Baden-W\u00fcrttemberg, 78532, Deutschland","status":"failed"},{"id":235470,"plz":"08507","city":"Plauen","lat":50.4950632,"lon":12.1346523,"geoaddr":"Plauen, Vogtlandkreis, Sachsen, Deutschland","status":"failed"},{"id":235471,"plz":"79744","city":"Waldshut-Tiengen","lat":47.6281754,"lon":8.2408579,"geoaddr":"Waldshut-Tiengen, Verwaltungsgemeinschaft Waldshut-Tiengen, Landkreis Waldshut, Baden-W\u00fcrttemberg, 79761, Deutschland","status":"failed"},{"id":235474,"plz":"95631","city":"Wunsiedel","lat":50.0373241,"lon":12.0027278,"geoaddr":"Wunsiedel, Landkreis Wunsiedel im Fichtelgebirge, Bayern, 95632, Deutschland","status":"failed"},{"id":235479,"plz":"63571","city":"Gelnhausen","lat":50.2028622,"lon":9.190486,"geoaddr":"Gelnhausen, Main-Kinzig-Kreis, Hessen, 63571, Deutschland","status":"failed"},{"id":235482,"plz":"63065","city":"Offenbach","lat":50.1055002,"lon":8.7610698,"geoaddr":"Offenbach am Main, Hessen, Deutschland","status":"failed"},{"id":235484,"plz":"16816","city":"Neuruppin","lat":52.9243859,"lon":12.8092919,"geoaddr":"Neuruppin, Ostprignitz-Ruppin, Brandenburg, Deutschland","status":"failed"},{"id":235486,"plz":"14806","city":"Bad Belzig","lat":52.1405622,"lon":12.5865873,"geoaddr":"Bad Belzig, Potsdam-Mittelmark, Brandenburg, 14806, Deutschland","status":"failed"},{"id":235492,"plz":"07907","city":"Schleiz","lat":50.5590505,"lon":11.8040013,"geoaddr":"Schleiz, Saale-Orla-Kreis, Th\u00fcringen, Deutschland","status":"failed"},{"id":235494,"plz":"06400","city":"Bernburg","lat":51.7930788,"lon":11.7391606,"geoaddr":"Bernburg, Salzlandkreis, Sachsen-Anhalt, 06406, Deutschland","status":"failed"},{"id":235498,"plz":"86143","city":"Augsburg","lat":48.3668041,"lon":10.8986971,"geoaddr":"Augsburg, Bayern, Deutschland","status":"failed"},{"id":235499,"plz":"76520","city":"Baden-Baden","lat":48.7580777,"lon":8.2415239,"geoaddr":"Baden-Baden, Baden-W\u00fcrttemberg, Deutschland","status":"failed"},{"id":235502,"plz":"09106","city":"Chemnitz","lat":50.8322608,"lon":12.9252977,"geoaddr":"Chemnitz, Sachsen, Deutschland","status":"failed"},{"id":235511,"plz":"79095","city":"Freiburg","lat":47.9960901,"lon":7.8494005,"geoaddr":"Freiburg im Breisgau, Baden-W\u00fcrttemberg, Deutschland","status":"failed"},{"id":235512,"plz":"07545","city":"Gera","lat":50.8772301,"lon":12.0796208,"geoaddr":"Gera, Th\u00fcringen, Deutschland","status":"failed"},{"id":235514,"plz":"69045","city":"Heidelberg","lat":49.4093582,"lon":8.694724,"geoaddr":"Heidelberg, Baden-W\u00fcrttemberg, Deutschland","status":"failed"},{"id":235515,"plz":"74024","city":"Heilbronn","lat":49.142291,"lon":9.218655,"geoaddr":"Heilbronn, Baden-W\u00fcrttemberg, Deutschland","status":"failed"},{"id":235527,"plz":"38226","city":"Salzgitter","lat":52.1503721,"lon":10.3593147,"geoaddr":"Salzgitter, Niedersachsen, Deutschland","status":"failed"},{"id":235536,"plz":"67227","city":"Frankenthal","lat":49.5445804,"lon":8.3540061,"geoaddr":"Frankenthal (Pfalz), Rheinland-Pfalz, 67227, Deutschland","status":"failed"},{"id":235537,"plz":"15230","city":"Frankfurt","lat":50.1106444,"lon":8.6820917,"geoaddr":"Frankfurt am Main, Hessen, Deutschland","status":"failed"},{"id":235540,"plz":"67653","city":"Kaiserslautern,","lat":49.4432174,"lon":7.7689951,"geoaddr":"Kaiserslautern, Rheinland-Pfalz, Deutschland","status":"failed"},{"id":235544,"plz":"87700","city":"Memmingen","lat":47.9867696,"lon":10.181319,"geoaddr":"Memmingen, Bayern, 87700, Deutschland","status":"failed"},{"id":235551,"plz":"93047","city":"Regensburg","lat":49.0195333,"lon":12.0974869,"geoaddr":"Regensburg, Bayern, Deutschland","status":"failed"},{"id":235552,"plz":"83013","city":"Rosenheim","lat":47.8539273,"lon":12.127262,"geoaddr":"Rosenheim, Bayern, Deutschland","status":"failed"},{"id":235554,"plz":"67346","city":"Speyer,","lat":49.3165553,"lon":8.433615,"geoaddr":"Speyer, Rheinland-Pfalz, 67346, Deutschland","status":"failed"},{"id":235555,"plz":"54280","city":"Trier,","lat":49.7596208,"lon":6.6441878,"geoaddr":"Trier, Rheinland-Pfalz, Deutschland","status":"failed"},{"id":235556,"plz":"92637","city":"Weiden","lat":49.8068258,"lon":7.3007004,"geoaddr":"Weiden, Herrstein-Rhaunen, Landkreis Birkenfeld, Rheinland-Pfalz, Deutschland","status":"failed"},{"id":235559,"plz":"97070","city":"W\u00fcrzburg","lat":49.79245,"lon":9.932966,"geoaddr":"W\u00fcrzburg, Bayern, Deutschland","status":"failed"},{"id":235562,"plz":"26382","city":"Wilhelmshaven","lat":53.5278793,"lon":8.106301,"geoaddr":"Wilhelmshaven, Niedersachsen, Deutschland","status":"failed"},{"id":235564,"plz":"36341","city":"Lauterbach","lat":50.6368507,"lon":9.3968633,"geoaddr":"Lauterbach, Vogelsbergkreis, Hessen, 36341, Deutschland","status":"failed"}]